[{"OBJECT_NAME":"STARLINK-34918","OBJECT_ID":"2025-189J","EPOCH":"2026-03-09T15:48:58.722336","MEAN_MOTION":15.30198722,"ECCENTRICITY":0.00012306,"INCLINATION":53.159,"RA_OF_ASC_NODE":206.7702,"ARG_OF_PERICENTER":69.9895,"MEAN_ANOMALY":290.1238,"EPHEMERIS_TYPE":0,"CLASSIFICATION_TYPE":"U","NORAD_CAT_ID":65331,"ELEMENT_SET_NO":999,"REV_AT_EPOCH":3104,"BSTAR":0.0013208499,"MEAN_MOTION_DOT":0.00038964,"MEAN_MOTION_DDOT":0},{"OBJECT_NAME":"COSMOS 2535 DEB","OBJECT_ID":"2019-039M","EPOCH":"2026-03-08T03:25:35.903424","MEAN_MOTION":15.28322551,"ECCENTRICITY":0.0014917,"INCLINATION":97.5619,"RA_OF_ASC_NODE":139.2722,"ARG_OF_PERICENTER":329.0964,"MEAN_ANOMALY":30.9396,"EPHEMERIS_TYPE":0,"CLASSIFICATION_TYPE":"U","NORAD_CAT_ID":44641,"ELEMENT_SET_NO":999,"REV_AT_EPOCH":35167,"BSTAR":0.0011539757,"MEAN_MOTION_DOT":0.0003196,"MEAN_MOTION_DDOT":0}]
